QIANFAN-57              
1 62787U 25016C   25203.21328883  .00000121  00000+0  16933-3 0  9999
2 62787  88.9865 117.9875 0017146  47.4562 312.8034 13.50959156 27825
QIANFAN-58              
1 62788U 25016D   25202.88826750  .00000112  00000+0  15503-3 0  9990
2 62788  88.9835 117.8973 0015909  43.8986 316.3426 13.50952500 27826
QIANFAN-59              
1 62789U 25016E   25202.90070225  .00000123  00000+0  17193-3 0  9991
2 62789  88.9858 117.9324 0016869  46.5104 313.7446 13.50956913 27826
QIANFAN-60              
1 62790U 25016F   25203.55891285  .00000128  00000+0  17949-3 0  9996
2 62790  88.9838 117.8718 0017258  42.6687 317.5801 13.50965396 27897
QIANFAN-61              
1 62791U 25016G   25202.90481120  .00000119  00000+0  16517-3 0  9998
2 62791  88.9907 117.9987 0016707  43.3865 316.8598 13.50954827 27823
QIANFAN-62              
1 62792U 25016H   25202.90874127  .00000125  00000+0  17514-3 0  9997
2 62792  88.9853 117.9446 0018116  43.3074 316.9497 13.50953730 27812
QIANFAN-63              
1 62793U 25016J   25203.21734697  .00000119  00000+0  16603-3 0  9991
2 62793  88.9860 117.8520 0017982  46.5713 313.6931 13.50959913 27892
QIANFAN-64              
1 62794U 25016K   25203.20912313  .00000121  00000+0  16930-3 0  9990
2 62794  88.9846 117.8522 0015700  41.6157 318.6186 13.50959587 27886
